MALLIGYONG-1            
1 58400U 23179A   24180.23332998  .00008450  00000+0  38170-3 0  9991
2 58400  97.4024  66.8948 0003248 125.0485 235.1056 15.21202230 33408
